[{"OBJECT_NAME":"STARLINK-31476","OBJECT_ID":"2024-073N","EPOCH":"2026-03-09T00:49:04.018656","MEAN_MOTION":15.27579294,"ECCENTRICITY":0.0001693,"INCLINATION":43.0016,"RA_OF_ASC_NODE":321.8672,"ARG_OF_PERICENTER":264.7192,"MEAN_ANOMALY":95.3466,"EPHEMERIS_TYPE":0,"CLASSIFICATION_TYPE":"U","NORAD_CAT_ID":59523,"ELEMENT_SET_NO":999,"REV_AT_EPOCH":10607,"BSTAR":-6.9917098e-5,"MEAN_MOTION_DOT":-2.186e-5,"MEAN_MOTION_DDOT":0},{"OBJECT_NAME":"YAOGAN-43 01G","OBJECT_ID":"2024-148G","EPOCH":"2026-03-09T10:38:37.087584","MEAN_MOTION":15.28332833,"ECCENTRICITY":0.00073829,"INCLINATION":35.0006,"RA_OF_ASC_NODE":62.0013,"ARG_OF_PERICENTER":306.3543,"MEAN_ANOMALY":53.6492,"EPHEMERIS_TYPE":0,"CLASSIFICATION_TYPE":"U","NORAD_CAT_ID":60464,"ELEMENT_SET_NO":999,"REV_AT_EPOCH":8700,"BSTAR":0.00035872736,"MEAN_MOTION_DOT":0.00010133,"MEAN_MOTION_DDOT":0}]
